{
    "links": {
        "self": "http://www.neowsapp.com/rest/v1/neo/3656921?api_key=iIulBulltgU6a56xZRHN4H3l9WmuAYTsLGpBGhQ2"
    },
    "id": "3656921",
    "neo_reference_id": "3656921",
    "name": "(2014 BH3)",
    "designation": "2014 BH3",
    "nasa_jpl_url": "http://ssd.jpl.nasa.gov/sbdb.cgi?sstr=3656921",
    "absolute_magnitude_h": 20.1,
    "estimated_diameter": {
        "kilometers": {
            "estimated_diameter_min": 0.2538370294,
            "estimated_diameter_max": 0.5675968529
        },
        "meters": {
            "estimated_diameter_min": 253.8370293645,
            "estimated_diameter_max": 567.5968528656
        },
        "miles": {
            "estimated_diameter_min": 0.1577269688,
            "estimated_diameter_max": 0.3526882241
        },
        "feet": {
            "estimated_diameter_min": 832.7986794202,
            "estimated_diameter_max": 1862.1944587557
        }
    },
    "is_potentially_hazardous_asteroid": false,
    "close_approach_data": [
        {
            "close_approach_date": "1985-01-24",
            "close_approach_date_full": "1985-Jan-24 17:24",
            "epoch_date_close_approach": 475435440000,
            "relative_velocity": {
                "kilometers_per_second": "22.1040014079",
                "kilometers_per_hour": "79574.4050685901",
                "miles_per_hour": "49444.4407494248"
            },
            "miss_distance": {
                "astronomical": "0.3258270922",
                "lunar": "126.7467388658",
                "kilometers": "48743038.981413614",
                "miles": "30287519.9720873132"
            },
            "orbiting_body": "Earth"
        },
        {
            "close_approach_date": "2005-01-30",
            "close_approach_date_full": "2005-Jan-30 12:24",
            "epoch_date_close_approach": 1107087840000,
            "relative_velocity": {
                "kilometers_per_second": "23.8788538013",
                "kilometers_per_hour": "85963.8736846634",
                "miles_per_hour": "53414.6080681177"
            },
            "miss_distance": {
                "astronomical": "0.4665923102",
                "lunar": "181.5044086678",
                "kilometers": "69801215.764299274",
                "miles": "43372464.2680430212"
            },
            "orbiting_body": "Earth"
        },
        {
            "close_approach_date": "2014-01-26",
            "close_approach_date_full": "2014-Jan-26 18:42",
            "epoch_date_close_approach": 1390761720000,
            "relative_velocity": {
                "kilometers_per_second": "22.0366978296",
                "kilometers_per_hour": "79332.1121864383",
                "miles_per_hour": "49293.8893749566"
            },
            "miss_distance": {
                "astronomical": "0.2652421839",
                "lunar": "103.1792095371",
                "kilometers": "39679665.745588293",
                "miles": "24655800.9896247234"
            },
            "orbiting_body": "Earth"
        },
        {
            "close_approach_date": "2023-01-24",
            "close_approach_date_full": "2023-Jan-24 02:30",
            "epoch_date_close_approach": 1674527400000,
            "relative_velocity": {
                "kilometers_per_second": "22.7494118527",
                "kilometers_per_hour": "81897.882669625",
                "miles_per_hour": "50888.1593732456"
            },
            "miss_distance": {
                "astronomical": "0.4608222694",
                "lunar": "179.2598627966",
                "kilometers": "68938029.950806178",
                "miles": "42836105.4748261364"
            },
            "orbiting_body": "Earth"
        },
        {
            "close_approach_date": "2052-01-25",
            "close_approach_date_full": "2052-Jan-25 19:11",
            "epoch_date_close_approach": 2589822660000,
            "relative_velocity": {
                "kilometers_per_second": "22.0984647996",
                "kilometers_per_hour": "79554.4732783876",
                "miles_per_hour": "49432.0559101181"
            },
            "miss_distance": {
                "astronomical": "0.3241099892",
                "lunar": "126.0787857988",
                "kilometers": "48486164.030043004",
                "miles": "30127905.2787372952"
            },
            "orbiting_body": "Earth"
        }
    ],
    "orbital_data": {
        "orbit_id": "20",
        "orbit_determination_date": "2019-08-06 05:56:30",
        "first_observation_date": "2014-01-20",
        "last_observation_date": "2014-02-24",
        "data_arc_in_days": 35,
        "observations_used": 146,
        "orbit_uncertainty": "6",
        "minimum_orbit_intersection": ".265105",
        "jupiter_tisserand_invariant": "3.854",
        "epoch_osculation": "2459000.5",
        "eccentricity": ".2725197647498386",
        "semi_major_axis": "1.70835959576824",
        "inclination": "42.85992832541755",
        "ascending_node_longitude": "127.4548314276357",
        "orbital_period": "815.5814962005422",
        "perihelion_distance": "1.24279784062135",
        "perihelion_argument": "346.1428351438313",
        "aphelion_distance": "2.17392135091513",
        "perihelion_time": "2459116.000238957151",
        "mean_anomaly": "309.0178648997326",
        "mean_motion": ".4414028538865724",
        "equinox": "J2000",
        "orbit_class": {
            "orbit_class_type": "AMO",
            "orbit_class_description": "Near-Earth asteroid orbits similar to that of 1221 Amor",
            "orbit_class_range": "1.017 AU < q (perihelion) < 1.3 AU"
        }
    },
    "is_sentry_object": false
}